{"type": "FeatureCollection", "features": [ {"type": "Feature", "properties": {"norad_id": 33939, "name": "COSMOS 2251 DEB", "group": "cosmos-2251-debris", "lat": -70.23171355486691, "lon": -26.247126312509373, "alt_km": 579.7145119914112, "timestamp": "2025-12-02T19:35:50.947622+00:00", "meta": {"OBJECT_NAME": "COSMOS 2251 DEB", "OBJECT_ID": "1993-036EU", "EPOCH": "2025-12-02T10:26:16.954080", "MEAN_MOTION": 14.98551631, "ECCENTRICITY": 0.0003328, "INCLINATION": 74.0065, "RA_OF_ASC_NODE": 101.583, "ARG_OF_PERICENTER": 127.34, "MEAN_ANOMALY": 232.8089, "EPHEMERIS_TYPE": 0, "CLASSIFICATION_TYPE": "U", "NORAD_CAT_ID": 33939, "ELEMENT_SET_NO": 999, "REV_AT_EPOCH": 88598, "BSTAR": 0.0042054, "MEAN_MOTION_DOT": 0.00050719, "MEAN_MOTION_DDOT": 0}, "tle": {"line1": "1 33939U 93036EU  25336.43491845  .00050719  00000+0  42054-2 0  9993", "line2": "2 33939  74.0065 101.5830 0003328 127.3400 232.8089 14.98551631885985"}}, "geometry": {"type": "Point", "coordinates": [-26.247126312509373, -70.23171355486691]}}, {"type": "Feature", "properties": {"norad_id": 33940, "name": "COSMOS 2251 DEB", "group": "cosmos-2251-debris", "lat": 34.58620963467041, "lon": 173.7700274692111, "alt_km": 702.536329975348, "timestamp": "2025-12-02T19:35:50.947632+00:00", "meta": {"OBJECT_NAME": "COSMOS 2251 DEB", "OBJECT_ID": "1993-036EV", "EPOCH": "2025-12-01T22:21:22.107168", "MEAN_MOTION": 14.58623365, "ECCENTRICITY": 0.00117714, "INCLINATION": 74.0387, "RA_OF_ASC_NODE": 164.0729, "ARG_OF_PERICENTER": 243.1066, "MEAN_ANOMALY": 187.5388, "EPHEMERIS_TYPE": 0, "CLASSIFICATION_TYPE": "U", "NORAD_CAT_ID": 33940, "ELEMENT_SET_NO": 999, "REV_AT_EPOCH": 88436, "BSTAR": 0.0011139104, "MEAN_MOTION_DOT": 5.167e-05, "MEAN_MOTION_DDOT": 0}, "tle": {"line1": "1 33940U 93036EV  25335.93150587  .00005167  00000+0  11139-2 0  9991", "line2": "2 33940  74.0387 164.0729 0011771 243.1066 187.5388 14.58623365884360"}}, "geometry": {"type": "Point", "coordinates": [173.7700274692111, 34.58620963467041]}}, {"type": "Feature", "properties": {"norad_id": 33942, "name": "COSMOS 2251 DEB", "group": "cosmos-2251-debris", "lat": -67.20318242275933, "lon": 156.03099461712165, "alt_km": 780.2847858478672, "timestamp": "2025-12-02T19:35:50.947642+00:00", "meta": {"OBJECT_NAME": "COSMOS 2251 DEB", "OBJECT_ID": "1993-036EX", "EPOCH": "2025-12-02T08:58:27.342048", "MEAN_MOTION": 14.37962429, "ECCENTRICITY": 0.0019844, "INCLINATION": 74.0361, "RA_OF_ASC_NODE": 293.9189, "ARG_OF_PERICENTER": 19.5967, "MEAN_ANOMALY": 103.6246, "EPHEMERIS_TYPE": 0, "CLASSIFICATION_TYPE": "U", "NORAD_CAT_ID": 33942, "ELEMENT_SET_NO": 999, "REV_AT_EPOCH": 87985, "BSTAR": 0.00033833, "MEAN_MOTION_DOT": 9.99e-06, "MEAN_MOTION_DDOT": 0}, "tle": {"line1": "1 33942U 93036EX  25336.37392757  .00000999  00000+0  33833-3 0  9993", "line2": "2 33942  74.0361 293.9189 0019844  19.5967 103.6246 14.37962429879854"}}, "geometry": {"type": "Point", "coordinates": [156.03099461712165, -67.20318242275933]}}, {"type": "Feature", "properties": {"norad_id": 33944, "name": "COSMOS 2251 DEB", "group": "cosmos-2251-debris", "lat": 26.130481094375504, "lon": 139.11329892230552, "alt_km": 755.800113863781, "timestamp": "2025-12-02T19:35:50.947652+00:00", "meta": {"OBJECT_NAME": "COSMOS 2251 DEB", "OBJECT_ID": "1993-036EZ", "EPOCH": "2025-12-02T09:35:38.304096", "MEAN_MOTION": 14.37308317, "ECCENTRICITY": 0.011191, "INCLINATION": 74.04, "RA_OF_ASC_NODE": 327.9499, "ARG_OF_PERICENTER": 70.2867, "MEAN_ANOMALY": 85.2273, "EPHEMERIS_TYPE": 0, "CLASSIFICATION_TYPE": "U", "NORAD_CAT_ID": 33944, "ELEMENT_SET_NO": 999, "REV_AT_EPOCH": 87879, "BSTAR": 0.0003712, "MEAN_MOTION_DOT": 1.163e-05, "MEAN_MOTION_DDOT": 0}, "tle": {"line1": "1 33944U 93036EZ  25336.39974889  .00001163  00000+0  37120-3 0  9996", "line2": "2 33944  74.0400 327.9499 0111910  70.2867  85.2273 14.37308317878799"}}, "geometry": {"type": "Point", "coordinates": [139.11329892230552, 26.130481094375504]}}, {"type": "Feature", "properties": {"norad_id": 33945, "name": "COSMOS 2251 DEB", "group": "cosmos-2251-debris", "lat": 39.60986893811213, "lon": -21.839600629125762, "alt_km": 757.9637823368375, "timestamp": "2025-12-02T19:35:50.947662+00:00", "meta": {"OBJECT_NAME": "COSMOS 2251 DEB", "OBJECT_ID": "1993-036FA", "EPOCH": "2025-12-02T09:21:48.393216", "MEAN_MOTION": 14.34586902, "ECCENTRICITY": 0.0021544, "INCLINATION": 74.0293, "RA_OF_ASC_NODE": 325.2322, "ARG_OF_PERICENTER": 54.7887, "MEAN_ANOMALY": 305.5277, "EPHEMERIS_TYPE": 0, "CLASSIFICATION_TYPE": "U", "NORAD_CAT_ID": 33945, "ELEMENT_SET_NO": 999, "REV_AT_EPOCH": 87867, "BSTAR": 0.000182, "MEAN_MOTION_DOT": 4.89e-06, "MEAN_MOTION_DDOT": 0}, "tle": {"line1": "1 33945U 93036FA  25336.39014344  .00000489  00000+0  18200-3 0  9996", "line2": "2 33945  74.0293 325.2322 0021544  54.7887 305.5277 14.34586902878672"}}, "geometry": {"type": "Point", "coordinates": [-21.839600629125762, 39.60986893811213]}}, {"type": "Feature", "properties": {"norad_id": 33948, "name": "COSMOS 2251 DEB", "group": "cosmos-2251-debris", "lat": -32.68409961037129, "lon": 153.92540764198037, "alt_km": 794.5903291715485, "timestamp": "2025-12-02T19:35:50.947672+00:00", "meta": {"OBJECT_NAME": "COSMOS 2251 DEB", "OBJECT_ID": "1993-036FD", "EPOCH": "2025-12-02T10:14:32.292960", "MEAN_MOTION": 14.3560902, "ECCENTRICITY": 0.0022302, "INCLINATION": 74.0351, "RA_OF_ASC_NODE": 324.0568, "ARG_OF_PERICENTER": 42.9104, "MEAN_ANOMALY": 317.3784, "EPHEMERIS_TYPE": 0, "CLASSIFICATION_TYPE": "U", "NORAD_CAT_ID": 33948, "ELEMENT_SET_NO": 999, "REV_AT_EPOCH": 87875, "BSTAR": 0.00026218, "MEAN_MOTION_DOT": 7.32e-06, "MEAN_MOTION_DDOT": 0}, "tle": {"line1": "1 33948U 93036FD  25336.42676265  .00000732  00000+0  26218-3 0  9998", "line2": "2 33948  74.0351 324.0568 0022302  42.9104 317.3784 14.35609020878754"}}, "geometry": {"type": "Point", "coordinates": [153.92540764198037, -32.68409961037129]}}, {"type": "Feature", "properties": {"norad_id": 33971, "name": "COSMOS 2251 DEB", "group": "cosmos-2251-debris", "lat": 41.798395617953695, "lon": 77.23234888201408, "alt_km": 762.4875764338458, "timestamp": "2025-12-02T19:35:50.947682+00:00", "meta": {"OBJECT_NAME": "COSMOS 2251 DEB", "OBJECT_ID": "1993-036FE", "EPOCH": "2025-12-02T06:08:11.673024", "MEAN_MOTION": 14.39691771, "ECCENTRICITY": 0.0018044, "INCLINATION": 74.0248, "RA_OF_ASC_NODE": 273.108, "ARG_OF_PERICENTER": 15.6945, "MEAN_ANOMALY": 94.3946, "EPHEMERIS_TYPE": 0, "CLASSIFICATION_TYPE": "U", "NORAD_CAT_ID": 33971, "ELEMENT_SET_NO": 999, "REV_AT_EPOCH": 87988, "BSTAR": 0.00043436, "MEAN_MOTION_DOT": 1.336e-05, "MEAN_MOTION_DDOT": 0}, "tle": {"line1": "1 33971U 93036FE  25336.25569066  .00001336  00000+0  43436-3 0  9997", "line2": "2 33971  74.0248 273.1080 0018044  15.6945  94.3946 14.39691771879881"}}, "geometry": {"type": "Point", "coordinates": [77.23234888201408, 41.798395617953695]}}, {"type": "Feature", "properties": {"norad_id": 33972, "name": "COSMOS 2251 DEB", "group": "cosmos-2251-debris", "lat": -19.438938358233056, "lon": 34.750327809192164, "alt_km": 863.9760285247685, "timestamp": "2025-12-02T19:35:50.947693+00:00", "meta": {"OBJECT_NAME": "COSMOS 2251 DEB", "OBJECT_ID": "1993-036FF", "EPOCH": "2025-12-02T02:39:00.139392", "MEAN_MOTION": 14.36101943, "ECCENTRICITY": 0.01228619, "INCLINATION": 73.9949, "RA_OF_ASC_NODE": 210.2361, "ARG_OF_PERICENTER": 20.3713, "MEAN_ANOMALY": 130.5233, "EPHEMERIS_TYPE": 0, "CLASSIFICATION_TYPE": "U", "NORAD_CAT_ID": 33972, "ELEMENT_SET_NO": 999, "REV_AT_EPOCH": 86921, "BSTAR": 0.0012858342, "MEAN_MOTION_DOT": 4.055e-05, "MEAN_MOTION_DDOT": 0}, "tle": {"line1": "1 33972U 93036FF  25336.11041828  .00004055  00000+0  12858-2 0  9998", "line2": "2 33972  73.9949 210.2361 0122861  20.3713 130.5233 14.36101943869213"}}, "geometry": {"type": "Point", "coordinates": [34.750327809192164, -19.438938358233056]}}, {"type": "Feature", "properties": {"norad_id": 33973, "name": "COSMOS 2251 DEB", "group": "cosmos-2251-debris", "lat": -16.9287717563242, "lon": 116.41183030129055, "alt_km": 719.8826683738125, "timestamp": "2025-12-02T19:35:50.947704+00:00", "meta": {"OBJECT_NAME": "COSMOS 2251 DEB", "OBJECT_ID": "1993-036FG", "EPOCH": "2025-12-02T11:41:02.976000", "MEAN_MOTION": 14.45372062, "ECCENTRICITY": 0.0047099, "INCLINATION": 74.0067, "RA_OF_ASC_NODE": 122.0353, "ARG_OF_PERICENTER": 302.3868, "MEAN_ANOMALY": 124.7815, "EPHEMERIS_TYPE": 0, "CLASSIFICATION_TYPE": "U", "NORAD_CAT_ID": 33973, "ELEMENT_SET_NO": 999, "REV_AT_EPOCH": 88452, "BSTAR": 0.00020195, "MEAN_MOTION_DOT": 6.92e-06, "MEAN_MOTION_DDOT": 0}, "tle": {"line1": "1 33973U 93036FG  25336.48684000  .00000692  00000+0  20195-3 0  9991", "line2": "2 33973  74.0067 122.0353 0047099 302.3868 124.7815 14.45372062884525"}}, "geometry": {"type": "Point", "coordinates": [116.41183030129055, -16.9287717563242]}}, {"type": "Feature", "properties": {"norad_id": 33975, "name": "COSMOS 2251 DEB", "group": "cosmos-2251-debris", "lat": 72.60785825925534, "lon": 170.02583249787807, "alt_km": 1007.912178826653, "timestamp": "2025-12-02T19:35:50.947713+00:00", "meta": {"OBJECT_NAME": "COSMOS 2251 DEB", "OBJECT_ID": "1993-036FJ", "EPOCH": "2025-12-02T10:36:51.886944", "MEAN_MOTION": 14.00485665, "ECCENTRICITY": 0.0191498, "INCLINATION": 73.8011, "RA_OF_ASC_NODE": 102.5534, "ARG_OF_PERICENTER": 237.0205, "MEAN_ANOMALY": 121.2394, "EPHEMERIS_TYPE": 0, "CLASSIFICATION_TYPE": "U", "NORAD_CAT_ID": 33975, "ELEMENT_SET_NO": 999, "REV_AT_EPOCH": 85685, "BSTAR": 0.00092698, "MEAN_MOTION_DOT": 1.586e-05, "MEAN_MOTION_DDOT": 0}, "tle": {"line1": "1 33975U 93036FJ  25336.44226721  .00001586  00000+0  92698-3 0  9991", "line2": "2 33975  73.8011 102.5534 0191498 237.0205 121.2394 14.00485665856853"}}, "geometry": {"type": "Point", "coordinates": [170.02583249787807, 72.60785825925534]}}]}